{"type": "FeatureCollection", "features": [ {"type": "Feature", "properties": {"norad_id": 30771, "name": "FENGYUN 1C DEB", "group": "fengyun-1c-debris", "lat": 47.84287504891251, "lon": -37.90601845322332, "alt_km": 755.0563256877394, "timestamp": "2025-12-22T09:53:37.680199+00:00", "meta": {"OBJECT_NAME": "FENGYUN 1C DEB", "OBJECT_ID": "1999-025AUH", "EPOCH": "2025-12-21T20:21:30.623040", "MEAN_MOTION": 14.43302725, "ECCENTRICITY": 0.0022379, "INCLINATION": 98.9057, "RA_OF_ASC_NODE": 331.4778, "ARG_OF_PERICENTER": 272.7032, "MEAN_ANOMALY": 87.1595, "EPHEMERIS_TYPE": 0, "CLASSIFICATION_TYPE": "U", "NORAD_CAT_ID": 30771, "ELEMENT_SET_NO": 999, "REV_AT_EPOCH": 97195, "BSTAR": 0.0019232, "MEAN_MOTION_DOT": 6.457e-05, "MEAN_MOTION_DDOT": 0}, "tle": {"line1": "1 30771U 99025AUH 25355.84827110  .00006457  00000+0  19232-2 0  9994", "line2": "2 30771  98.9057 331.4778 0022379 272.7032  87.1595 14.43302725971954"}}, "geometry": {"type": "Point", "coordinates": [-37.90601845322332, 47.84287504891251]}}, {"type": "Feature", "properties": {"norad_id": 30802, "name": "FENGYUN 1C DEB", "group": "fengyun-1c-debris", "lat": 17.00163655092564, "lon": -93.88547816989096, "alt_km": 794.779919118645, "timestamp": "2025-12-22T09:53:37.680208+00:00", "meta": {"OBJECT_NAME": "FENGYUN 1C DEB", "OBJECT_ID": "1999-025AUL", "EPOCH": "2025-12-21T04:46:44.859648", "MEAN_MOTION": 14.3251891, "ECCENTRICITY": 0.00176283, "INCLINATION": 98.8374, "RA_OF_ASC_NODE": 82.1518, "ARG_OF_PERICENTER": 15.5568, "MEAN_ANOMALY": 14.4616, "EPHEMERIS_TYPE": 0, "CLASSIFICATION_TYPE": "U", "NORAD_CAT_ID": 30802, "ELEMENT_SET_NO": 999, "REV_AT_EPOCH": 97324, "BSTAR": 0.0011058315, "MEAN_MOTION_DOT": 2.958e-05, "MEAN_MOTION_DDOT": 0}, "tle": {"line1": "1 30802U 99025AUL 25355.19913032  .00002958  00000+0  11058-2 0  9996", "line2": "2 30802  98.8374  82.1518 0017628  15.5568  14.4616 14.32518910973244"}}, "geometry": {"type": "Point", "coordinates": [-93.88547816989096, 17.00163655092564]}}, {"type": "Feature", "properties": {"norad_id": 30803, "name": "FENGYUN 1C DEB", "group": "fengyun-1c-debris", "lat": 70.01034031643131, "lon": -123.52119319167858, "alt_km": 816.8961364632651, "timestamp": "2025-12-22T09:53:37.680218+00:00", "meta": {"OBJECT_NAME": "FENGYUN 1C DEB", "OBJECT_ID": "1999-025AUM", "EPOCH": "2025-12-22T01:00:59.351040", "MEAN_MOTION": 14.11287813, "ECCENTRICITY": 0.010761, "INCLINATION": 99.2454, "RA_OF_ASC_NODE": 29.4978, "ARG_OF_PERICENTER": 175.7085, "MEAN_ANOMALY": 214.9537, "EPHEMERIS_TYPE": 0, "CLASSIFICATION_TYPE": "U", "NORAD_CAT_ID": 30803, "ELEMENT_SET_NO": 999, "REV_AT_EPOCH": 96130, "BSTAR": 0.0011029, "MEAN_MOTION_DOT": 2.057e-05, "MEAN_MOTION_DDOT": 0}, "tle": {"line1": "1 30803U 99025AUM 25356.04235360  .00002057  00000+0  11029-2 0  9991", "line2": "2 30803  99.2454  29.4978 0107610 175.7085 214.9537 14.11287813961302"}}, "geometry": {"type": "Point", "coordinates": [-123.52119319167858, 70.01034031643131]}}, {"type": "Feature", "properties": {"norad_id": 30804, "name": "FENGYUN 1C DEB", "group": "fengyun-1c-debris", "lat": -26.268500201908537, "lon": -121.97001304391605, "alt_km": 622.1617512937428, "timestamp": "2025-12-22T09:53:37.680228+00:00", "meta": {"OBJECT_NAME": "FENGYUN 1C DEB", "OBJECT_ID": "1999-025AUN", "EPOCH": "2025-12-20T23:05:50.856288", "MEAN_MOTION": 14.54645992, "ECCENTRICITY": 0.0185848, "INCLINATION": 98.894, "RA_OF_ASC_NODE": 60.9206, "ARG_OF_PERICENTER": 165.6551, "MEAN_ANOMALY": 11.2785, "EPHEMERIS_TYPE": 0, "CLASSIFICATION_TYPE": "U", "NORAD_CAT_ID": 30804, "ELEMENT_SET_NO": 999, "REV_AT_EPOCH": 99596, "BSTAR": 0.00032138, "MEAN_MOTION_DOT": 1.669e-05, "MEAN_MOTION_DDOT": 0}, "tle": {"line1": "1 30804U 99025AUN 25354.96239417  .00001669  00000+0  32138-3 0  9991", "line2": "2 30804  98.8940  60.9206 0185848 165.6551  11.2785 14.54645992995962"}}, "geometry": {"type": "Point", "coordinates": [-121.97001304391605, -26.268500201908537]}}, {"type": "Feature", "properties": {"norad_id": 30805, "name": "FENGYUN 1C DEB", "group": "fengyun-1c-debris", "lat": -3.957997041567674, "lon": 39.3860686111516, "alt_km": 895.0341320523921, "timestamp": "2025-12-22T09:53:37.680241+00:00", "meta": {"OBJECT_NAME": "FENGYUN 1C DEB", "OBJECT_ID": "1999-025AUP", "EPOCH": "2025-12-22T01:29:48.869088", "MEAN_MOTION": 14.02920278, "ECCENTRICITY": 0.0070486, "INCLINATION": 98.82, "RA_OF_ASC_NODE": 38.4316, "ARG_OF_PERICENTER": 257.7578, "MEAN_ANOMALY": 131.5066, "EPHEMERIS_TYPE": 0, "CLASSIFICATION_TYPE": "U", "NORAD_CAT_ID": 30805, "ELEMENT_SET_NO": 999, "REV_AT_EPOCH": 96091, "BSTAR": 0.0009359, "MEAN_MOTION_DOT": 1.44e-05, "MEAN_MOTION_DDOT": 0}, "tle": {"line1": "1 30805U 99025AUP 25356.06237117  .00001440  00000+0  93590-3 0  9996", "line2": "2 30805  98.8200  38.4316 0070486 257.7578 131.5066 14.02920278960918"}}, "geometry": {"type": "Point", "coordinates": [39.3860686111516, -3.957997041567674]}}, {"type": "Feature", "properties": {"norad_id": 30806, "name": "FENGYUN 1C DEB", "group": "fengyun-1c-debris", "lat": -40.83567175326064, "lon": 30.278493092080105, "alt_km": 1167.4634515305243, "timestamp": "2025-12-22T09:53:37.680251+00:00", "meta": {"OBJECT_NAME": "FENGYUN 1C DEB", "OBJECT_ID": "1999-025AUQ", "EPOCH": "2025-12-21T01:04:51.239136", "MEAN_MOTION": 13.70431377, "ECCENTRICITY": 0.02680834, "INCLINATION": 99.0352, "RA_OF_ASC_NODE": 21.0883, "ARG_OF_PERICENTER": 108.5793, "MEAN_ANOMALY": 310.1966, "EPHEMERIS_TYPE": 0, "CLASSIFICATION_TYPE": "U", "NORAD_CAT_ID": 30806, "ELEMENT_SET_NO": 999, "REV_AT_EPOCH": 93809, "BSTAR": 0.00059263332, "MEAN_MOTION_DOT": 6.37e-06, "MEAN_MOTION_DDOT": 0}, "tle": {"line1": "1 30806U 99025AUQ 25355.04503749  .00000637  00000+0  59263-3 0  9997", "line2": "2 30806  99.0352  21.0883 0268083 108.5793 310.1966 13.70431377938090"}}, "geometry": {"type": "Point", "coordinates": [30.278493092080105, -40.83567175326064]}}, {"type": "Feature", "properties": {"norad_id": 30809, "name": "FENGYUN 1C DEB", "group": "fengyun-1c-debris", "lat": 16.32167391203739, "lon": 82.93838897355643, "alt_km": 817.4633394961456, "timestamp": "2025-12-22T09:53:37.680261+00:00", "meta": {"OBJECT_NAME": "FENGYUN 1C DEB", "OBJECT_ID": "1999-025AUT", "EPOCH": "2025-12-21T22:03:19.694016", "MEAN_MOTION": 14.29303601, "ECCENTRICITY": 0.0052243, "INCLINATION": 98.789, "RA_OF_ASC_NODE": 85.0377, "ARG_OF_PERICENTER": 145.8511, "MEAN_ANOMALY": 214.6049, "EPHEMERIS_TYPE": 0, "CLASSIFICATION_TYPE": "U", "NORAD_CAT_ID": 30809, "ELEMENT_SET_NO": 999, "REV_AT_EPOCH": 97218, "BSTAR": 0.0016273, "MEAN_MOTION_DOT": 4.16e-05, "MEAN_MOTION_DDOT": 0}, "tle": {"line1": "1 30809U 99025AUT 25355.91897794  .00004160  00000+0  16273-2 0  9990", "line2": "2 30809  98.7890  85.0377 0052243 145.8511 214.6049 14.29303601972186"}}, "geometry": {"type": "Point", "coordinates": [82.93838897355643, 16.32167391203739]}}, {"type": "Feature", "properties": {"norad_id": 30810, "name": "FENGYUN 1C DEB", "group": "fengyun-1c-debris", "lat": -69.27549666081194, "lon": -35.8439727078691, "alt_km": 980.1730212112507, "timestamp": "2025-12-22T09:53:37.680271+00:00", "meta": {"OBJECT_NAME": "FENGYUN 1C DEB", "OBJECT_ID": "1999-025AUU", "EPOCH": "2025-12-20T10:31:40.827072", "MEAN_MOTION": 14.04214076, "ECCENTRICITY": 0.01798644, "INCLINATION": 98.6612, "RA_OF_ASC_NODE": 166.0301, "ARG_OF_PERICENTER": 33.2159, "MEAN_ANOMALY": 328.0148, "EPHEMERIS_TYPE": 0, "CLASSIFICATION_TYPE": "U", "NORAD_CAT_ID": 30810, "ELEMENT_SET_NO": 999, "REV_AT_EPOCH": 94491, "BSTAR": 0.002052949, "MEAN_MOTION_DOT": 3.724e-05, "MEAN_MOTION_DDOT": 0}, "tle": {"line1": "1 30810U 99025AUU 25354.43866698  .00003724  00000+0  20529-2 0  9991", "line2": "2 30810  98.6612 166.0301 0179864  33.2159 328.0148 14.04214076944913"}}, "geometry": {"type": "Point", "coordinates": [-35.8439727078691, -69.27549666081194]}}, {"type": "Feature", "properties": {"norad_id": 30811, "name": "FENGYUN 1C DEB", "group": "fengyun-1c-debris", "lat": 31.167418983602484, "lon": -139.81641141015803, "alt_km": 1148.6247199932295, "timestamp": "2025-12-22T09:53:37.680283+00:00", "meta": {"OBJECT_NAME": "FENGYUN 1C DEB", "OBJECT_ID": "1999-025AUV", "EPOCH": "2025-12-22T02:07:59.435904", "MEAN_MOTION": 13.61870689, "ECCENTRICITY": 0.0277978, "INCLINATION": 98.7814, "RA_OF_ASC_NODE": 34.5277, "ARG_OF_PERICENTER": 21.7209, "MEAN_ANOMALY": 339.5458, "EPHEMERIS_TYPE": 0, "CLASSIFICATION_TYPE": "U", "NORAD_CAT_ID": 30811, "ELEMENT_SET_NO": 999, "REV_AT_EPOCH": 92994, "BSTAR": 0.0016486, "MEAN_MOTION_DOT": 1.603e-05, "MEAN_MOTION_DDOT": 0}, "tle": {"line1": "1 30811U 99025AUV 25356.08888236  .00001603  00000+0  16486-2 0  9998", "line2": "2 30811  98.7814  34.5277 0277978  21.7209 339.5458 13.61870689929940"}}, "geometry": {"type": "Point", "coordinates": [-139.81641141015803, 31.167418983602484]}}, {"type": "Feature", "properties": {"norad_id": 30814, "name": "FENGYUN 1C DEB", "group": "fengyun-1c-debris", "lat": 30.107770272230198, "lon": -31.588265178195186, "alt_km": 710.7453990297936, "timestamp": "2025-12-22T09:53:37.680293+00:00", "meta": {"OBJECT_NAME": "FENGYUN 1C DEB", "OBJECT_ID": "1999-025AUY", "EPOCH": "2025-12-21T22:32:56.694912", "MEAN_MOTION": 14.60638958, "ECCENTRICITY": 0.0030411, "INCLINATION": 99.0822, "RA_OF_ASC_NODE": 333.216, "ARG_OF_PERICENTER": 203.3091, "MEAN_ANOMALY": 223.2203, "EPHEMERIS_TYPE": 0, "CLASSIFICATION_TYPE": "U", "NORAD_CAT_ID": 30814, "ELEMENT_SET_NO": 999, "REV_AT_EPOCH": 97876, "BSTAR": 0.0024749, "MEAN_MOTION_DOT": 0.00012085, "MEAN_MOTION_DDOT": 0}, "tle": {"line1": "1 30814U 99025AUY 25355.93954508  .00012085  00000+0  24749-2 0  9997", "line2": "2 30814  99.0822 333.2160 0030411 203.3091 223.2203 14.60638958978764"}}, "geometry": {"type": "Point", "coordinates": [-31.588265178195186, 30.107770272230198]}}]}